163P/NEAT,e,12.7177,102.0659,349.5581,3.764329,0.1349499,0.45275413,187.6216,05/27.0/2023,2000,g 14.5,4.0
# From MPEC 2021-F20
164P/Christensen,e,16.2718,88.2651,325.8851,3.653968,0.1411097,0.54105160,256.7912,05/27.0/2023,2000,g 11.0,4.0
# From MPC 75721
165P/LINEAR,e,15.8956,0.8498,125.7741,17.83321,0.0130876,0.61694809,110.0085,05/27.0/2023,2000,g 11.5,2.0
# From MPC 75722
166P/NEAT,e,15.3866,64.3385,321.7072,13.81779,0.0191887,0.38458644,146.9899,05/27.0/2023,2000,g  5.5,4.0
# From MPEC 2023-J29
167P/CINEOS,e,19.0992,295.7520,344.7842,16.25269,0.0150424,0.26937895,121.2751,05/27.0/2023,2000,g  9.5,2.0
# From MPEC 2023-J29
168P/Hergenrother,e,21.6130,355.4311,15.0485,3.587046,0.1450770,0.62166545,201.1908,05/27.0/2023,2000,g 15.5,4.0
# From MPEC 2023-J95
169P/NEAT,e,11.2979,176.1007,218.0591,2.602808,0.2347150,0.76834245,75.4155,05/27.0/2023,2000,g 16.0,2.0
# From MPEC 2023-A50
170P/Christensen,e,10.1152,142.8919,225.3591,4.211517,0.1140371,0.30575630,4.2912,05/27.0/2023,2000,g 12.0,4.0
# From MPC102102
171P/Spahr,e,21.9486,101.6886,347.0484,3.553531,0.1471343,0.50227126,234.6002,05/27.0/2023,2000,g 13.5,4.0
# From MPEC 2023-J95
172P/Yeung,e,11.2253,30.8751,209.1973,4.217950,0.1137763,0.20450768,258.4922,05/27.0/2023,2000,g 13.0,4.0
# From MPEC 2023-KD6
173P/Mueller,e,16.4891,100.3756,29.1554,5.710446,0.0722269,0.26162778,38.0322,05/27.0/2023,2000,g  7.5,4.0
# From MPC 92985
174P/Echeclus,e,4.3438,173.1906,163.4408,10.74699,0.0279752,0.45673713,82.6010,05/27.0/2023,2000,g  9.4,2.0
# From MPC114608
175P/Hergenrother,e,4.9121,110.9808,74.8211,3.650828,0.1412918,0.38693032,191.9295,05/27.0/2023,2000,g 14.0,4.0
# From MPC 89015
176P/LINEAR,e,0.2313,345.7777,34.3735,3.195839,0.1725149,0.19260309,32.3437,05/27.0/2023,2000,g 15.1,2.0
# From MPEC 2020-L06
177P/Barnard,e,31.0839,271.8538,60.6764,24.49880,0.0081281,0.95506763,49.6371,05/27.0/2023,2000,g 15.0,4.0
# From MPEC 2021-F20
178P/Hug-Bell,e,11.0878,102.8245,297.8677,3.632743,0.1423482,0.48250414,148.5769,05/27.0/2023,2000,g 14.6,4.0
# From MPEC 2023-HD1
179P/Jedicke,e,19.8971,115.5149,297.0120,5.932818,0.0682044,0.30583426,24.6227,05/27.0/2023,2000,g 12.5,4.0
# From MPEC 2023-KD6
180P/NEAT,e,16.8600,84.5664,94.6666,3.867668,0.1295777,0.35340161,354.0148,05/27.0/2023,2000,g 11.0,4.0
# From MPC 89012
181P/Shoemaker-Levy,e,17.4863,35.3948,336.2811,3.875967,0.1291618,0.70054245,64.9998,05/27.0/2023,2000,g 11.5,4.0
# From MPEC 2014-J10
182P/LONEOS,e,16.2295,72.4578,54.2163,2.950119,0.1945113,0.66329269,73.8644,05/27.0/2023,2000,g 18.0,4.0
# From MPEC 2023-A50
183P/Korlevic-Juric,e,18.9381,3.9834,166.8853,4.663456,0.0978684,0.10744569,202.9048,05/27.0/2023,2000,g 12.5,2.0
# From MPEC 2020-W26
184P/Lovas,e,4.5738,173.2412,186.5628,3.797844,0.1331675,0.55084390,125.5318,05/27.0/2023,2000,g 13.5,4.0
# From MPEC 2023-J95
185P/Petriew,e,14.0146,214.1145,181.8897,3.098160,0.1807375,0.69972632,351.5233,05/27.0/2023,2000,g 15.0,4.0
# From MPEC 2022-X67
186P/Garradd,e,28.6476,326.2904,269.4459,4.853711,0.0921708,0.12416261,148.1094,05/27.0/2023,2000,g  7.5,4.0
# From MPEC 2020-SI8
187P/LINEAR,e,13.6390,109.8772,131.2694,4.563824,0.1010906,0.15271251,186.2880,05/27.0/2023,2000,g  9.0,4.0
# From MPEC 2023-J29
188P/LINEAR-Mueller,e,10.5251,358.9588,26.6619,4.370012,0.1078897,0.41686130,246.5258,05/27.0/2023,2000,g 11.5,4.0
# From MPEC 2022-QD9
189P/NEAT,e,20.0729,281.6897,16.3269,2.945263,0.1949925,0.58882975,52.8737,05/27.0/2023,2000,g 19.0,4.0
# From MPEC 2020-K19
190P/Mueller,e,2.1741,335.5246,50.4328,4.229648,0.1133046,0.52224385,294.6204,05/27.0/2023,2000,g 13.0,4.0
# From MPEC 2022-X67
191P/McNaught,e,8.8394,98.2136,284.1606,3.638161,0.1420304,0.38594158,113.2712,05/27.0/2023,2000,g 13.0,4.0
# From MPC 75724
192P/Shoemaker-Levy,e,24.5880,51.6113,313.0663,6.465250,0.0599551,0.77341569,338.2151,05/27.0/2023,2000,g 15.0,4.0
# From MPEC 2022-Y15
193P/LINEAR-NEAT,e,10.6874,335.1798,8.1121,3.577033,0.1456866,0.39354988,93.2206,05/27.0/2023,2000,g 14.0,4.0
# From MPEC 2023-J29
194P/LINEAR,e,11.8128,349.5519,128.4977,4.125340,0.1176290,0.56377305,330.2528,05/27.0/2023,2000,g 16.0,4.0
# From MPEC 2023-D72
195P/Hill,e,36.3594,243.1083,249.3810,6.506234,0.0593895,0.31491471,312.9751,05/27.0/2023,2000,g  8.5,4.0
# From MPEC 2022-YN2
196P/Tichy,e,19.3018,24.1124,12.0403,3.803261,0.1328831,0.42802384,27.8658,05/27.0/2023,2000,g 13.5,4.0
# From MPC 94676
197P/LINEAR,e,25.5289,66.3564,188.7692,2.868520,0.2028698,0.62939649,34.5408,05/27.0/2023,2000,g 16.5,2.0
# From NK 1596
198P/ODAS,e,1.3385,358.2069,69.2348,3.595839,0.1445452,0.44445546,234.7125,05/27.0/2023,2000,g  9.0,4.0
# From MPEC 2023-KD6
199P/Shoemaker,e,24.9370,92.3474,191.7699,5.882871,0.0690749,0.50527253,354.9878,05/27.0/2023,2000,g 10.0,4.0
# From MPEC 2022-C56
200P/Larsen,e,12.0983,234.7335,134.3552,4.947342,0.0895666,0.33248557,125.1056,05/27.0/2023,2000,g  9.0,4.0
# From MPC 93588
201P/LONEOS,e,5.7393,19.7440,41.5467,3.354753,0.1604033,0.63741960,117.1074,05/27.0/2023,2000,g 14.0,4.0
# From MPEC 2022-X67
202P/Scotti,e,2.1417,177.3418,274.5125,4.118933,0.1179036,0.25536440,318.0046,05/27.0/2023,2000,g 13.5,4.0
# From MPEC 2021-S45
203P/Korlevic,e,2.9732,290.2756,154.7935,4.669227,0.0976870,0.31586788,115.0615,05/27.0/2023,2000,g 14.5,2.0
# From MPEC 2023-KD6
204P/LINEAR-NEAT,e,6.5960,108.4973,356.6625,3.582298,0.1453656,0.48792310,27.7824,05/27.0/2023,2000,g 14.0,4.0
# From MPEC 2023-A50
205P/Giacobini,e,15.3061,179.6040,154.1767,3.542034,0.1478513,0.56789498,73.6882,05/27.0/2023,2000,g 13.0,4.0
# From MPC 75725
206P/Barnard-Boattini,e,33.6407,202.3307,189.5449,3.490336,0.1511483,0.55152272,122.9229,05/27.0/2023,2000,g 19.0,4.0
# From MPC 75725
207P/NEAT,e,10.2016,198.1599,273.0125,3.881115,0.1289049,0.75838951,327.7987,05/27.0/2023,2000,g 16.0,4.0
# From MPEC 2022-K19
208P/McMillan,e,4.4125,36.3397,310.6174,4.041012,0.1213302,0.37410068,304.8305,05/27.0/2023,2000,g 12.5,4.0
# From MPEC 2023-CD7
209P/LINEAR,e,21.2758,62.7654,152.4546,2.959474,0.1935897,0.67370073,279.7406,05/27.0/2023,2000,g 17.0,2.0
# From MPC105242
210P/Christensen,e,10.2776,93.8008,345.9066,3.162822,0.1752233,0.83375781,200.4148,05/27.0/2023,2000,g 13.5,4.0
# From MPEC 2023-KD6
211P/Hill,e,18.9185,117.1277,4.2976,3.548196,0.1474662,0.34401491,34.5574,05/27.0/2023,2000,g 12.5,4.0
# From MPEC 2021-F20
212P/NEAT,e,22.1441,98.0250,14.0303,3.901327,0.1279044,0.58697653,317.2650,05/27.0/2023,2000,g 17.0,2.0
# From MPEC 2022-GA9
213P/VanNess,e,10.3809,311.2759,5.7699,3.345600,0.1610620,0.40806034,332.8230,05/27.0/2023,2000,g 10.5,4.0
# From MPC 92986
214P/LINEAR,e,15.1829,348.2455,190.1676,3.619389,0.1431367,0.48587564,34.7561,05/27.0/2023,2000,g 13.0,4.0
# From MPEC 2023-B57
215P/NEAT,e,10.5770,56.6773,262.4161,4.331725,0.1093233,0.16596027,140.4654,05/27.0/2023,2000,g 11.0,4.0
# From MPC100284
216P/LINEAR,e,9.0634,359.7997,151.7142,3.857394,0.1300958,0.44853432,330.7504,05/27.0/2023,2000,g 13.0,4.0
# From MPEC 2023-J29
217P/LINEAR,e,12.8621,125.4138,246.9591,3.948063,0.1256400,0.68930047,268.4357,05/27.0/2023,2000,g 12.0,4.0
# From MPEC 2022-K19
218P/LINEAR,e,2.7306,176.0143,59.5270,3.086848,0.1817319,0.62379106,175.3492,05/27.0/2023,2000,g 16.0,4.0
# From MPEC 2023-J29
219P/LINEAR,e,11.5397,230.9525,107.5940,3.645937,0.1415762,0.35405761,322.8042,05/27.0/2023,2000,g 11.0,4.0
# From MPEC 2021-BE3
220P/McNaught,e,8.1268,150.1064,180.6099,3.118035,0.1790122,0.50120117,160.6701,05/27.0/2023,2000,g 15.0,4.0
# From MPEC 2022-UY9
221P/LINEAR,e,11.4749,229.5808,40.0553,3.455444,0.1534434,0.49474757,80.4693,05/27.0/2023,2000,g 14.5,4.0
# From MPC 92277
222P/LINEAR,e,5.0976,6.7741,346.2838,2.898431,0.1997375,0.71475817,289.7187,05/27.0/2023,2000,g 20.0,4.0
# From MPEC 2023-A50
223P/Skiff,e,27.0203,346.7620,37.8781,4.158560,0.1162223,0.41655315,183.4976,05/27.0/2023,2000,g 12.0,4.0
# From MPEC 2023-BF4
224P/LINEAR-NEAT,e,13.3058,40.0381,16.6919,3.443808,0.1542217,0.40583893,36.8575,05/27.0/2023,2000,g 15.5,4.0
# From MPC 75727
225P/LINEAR,e,21.3668,14.2042,3.9167,3.648256,0.1414413,0.63851223,349.6660,05/27.0/2023,2000,g 18.0,4.0
# From MPC106349
226P/Pigott-LINEAR-Kowalski,e,44.0446,54.0131,341.0804,3.765977,0.1348614,0.52900615,331.1044,05/27.0/2023,2000,g 12.5,4.0
# From MPC102956
227P/Catalina-LINEAR,e,7.5092,36.8114,105.4970,3.440169,0.1544665,0.52790330,315.8086,05/27.0/2023,2000,g 16.5,2.0
# From MPEC 2022-HC2
228P/LINEAR,e,7.9132,30.9853,114.8150,4.166162,0.1159044,0.17641813,136.1992,05/27.0/2023,2000,g 14.1,4.0
# From MPC106349
229P/Gibbs,e,26.0920,157.8974,224.0950,3.925709,0.1267147,0.37798101,277.8272,05/27.0/2023,2000,g 13.0,4.0
# From MPEC 2023-KD6
230P/LINEAR,e,15.4681,106.9718,313.4739,3.453122,0.1535982,0.54562089,66.5992,05/27.0/2023,2000,g 13.0,4.0
# From MPEC 2022-K19
231P/LINEAR-NEAT,e,12.2871,132.9419,44.1967,4.049576,0.1209455,0.24207824,174.6756,05/27.0/2023,2000,g 14.5,2.0
# From MPC112394
232P/Hill,e,14.6435,56.0265,53.2218,4.474385,0.1041368,0.33499882,157.4513,05/27.0/2023,2000,g 11.5,4.0
# From MPEC 2021-N06
233P/La Sagra,e,11.2895,74.9181,26.9577,3.028165,0.1870401,0.41235314,180.9043,05/27.0/2023,2000,g 15.0,4.0
# From MPEC 2022-K19
234P/LINEAR,e,11.5356,179.5706,357.3617,3.795874,0.1332712,0.25658836,291.3053,05/27.0/2023,2000,g 12.0,4.0
# From MPC110497
235P/LINEAR,e,10.7099,202.3502,339.6329,3.697625,0.1386180,0.40396895,234.3495,05/27.0/2023,2000,g 12.0,4.0
# From MPEC 2023-J29
236P/LINEAR,e,16.3521,245.5708,119.3561,3.727579,0.1369506,0.50940124,275.2763,05/27.0/2023,2000,g 14.0,4.0
# From MPEC 2023-KD6
237P/LINEAR,e,14.0168,245.3588,25.2621,3.510622,0.1498401,0.43399046,1.8459,05/27.0/2023,2000,g 14.5,2.0
# From MPEC 2022-YN2
238P/Read,e,1.2640,51.6256,324.1932,3.165168,0.1750285,0.25137966,62.2494,05/27.0/2023,2000,g 14.5,4.0
# From MPEC 2021-F20
239P/LINEAR,e,11.3050,255.9346,220.3563,4.466997,0.1043952,0.63055454,166.8908,05/27.0/2023,2000,g 17.5,2.0
# From MPEC 2023-CD7
240P/NEAT,e,23.5326,74.9105,351.9645,3.863610,0.1297819,0.45000327,238.2657,05/27.0/2023,2000,g 11.0,4.0
# From MPEC 2022-J42
